[{"OBJECT_NAME":"STARLINK-34015","OBJECT_ID":"2025-093U","EPOCH":"2026-03-09T16:00:03.000096","MEAN_MOTION":15.27584294,"ECCENTRICITY":0.00013024,"INCLINATION":43.0021,"RA_OF_ASC_NODE":78.3577,"ARG_OF_PERICENTER":259.967,"MEAN_ANOMALY":136.0451,"EPHEMERIS_TYPE":0,"CLASSIFICATION_TYPE":"U","NORAD_CAT_ID":63854,"ELEMENT_SET_NO":999,"REV_AT_EPOCH":567,"BSTAR":-0.00046418368,"MEAN_MOTION_DOT":-0.00013015,"MEAN_MOTION_DDOT":0},{"OBJECT_NAME":"PEGASUS R\/B","OBJECT_ID":"2007-015B","EPOCH":"2026-03-09T10:58:33.801024","MEAN_MOTION":15.26741121,"ECCENTRICITY":0.00105976,"INCLINATION":97.9168,"RA_OF_ASC_NODE":31.3919,"ARG_OF_PERICENTER":317.6341,"MEAN_ANOMALY":42.4077,"EPHEMERIS_TYPE":0,"CLASSIFICATION_TYPE":"U","NORAD_CAT_ID":31305,"ELEMENT_SET_NO":999,"REV_AT_EPOCH":3383,"BSTAR":0.00044093522,"MEAN_MOTION_DOT":0.00011537,"MEAN_MOTION_DDOT":0}]
